{
    "links": {
        "self": "http://www.neowsapp.com/rest/v1/neo/3432704?api_key=iIulBulltgU6a56xZRHN4H3l9WmuAYTsLGpBGhQ2"
    },
    "id": "3432704",
    "neo_reference_id": "3432704",
    "name": "(2008 UT2)",
    "designation": "2008 UT2",
    "nasa_jpl_url": "http://ssd.jpl.nasa.gov/sbdb.cgi?sstr=3432704",
    "absolute_magnitude_h": 25.1,
    "estimated_diameter": {
        "kilometers": {
            "estimated_diameter_min": 0.0253837029,
            "estimated_diameter_max": 0.0567596853
        },
        "meters": {
            "estimated_diameter_min": 25.3837029364,
            "estimated_diameter_max": 56.7596852866
        },
        "miles": {
            "estimated_diameter_min": 0.0157726969,
            "estimated_diameter_max": 0.0352688224
        },
        "feet": {
            "estimated_diameter_min": 83.279867942,
            "estimated_diameter_max": 186.2194458756
        }
    },
    "is_potentially_hazardous_asteroid": false,
    "close_approach_data": [
        {
            "close_approach_date": "2008-10-14",
            "close_approach_date_full": "2008-Oct-14 03:12",
            "epoch_date_close_approach": 1223953920000,
            "relative_velocity": {
                "kilometers_per_second": "10.9218170037",
                "kilometers_per_hour": "39318.5412134114",
                "miles_per_hour": "24431.0124556333"
            },
            "miss_distance": {
                "astronomical": "0.027353693",
                "lunar": "10.640586577",
                "kilometers": "4092054.20943391",
                "miles": "2542684.579891558"
            },
            "orbiting_body": "Earth"
        },
        {
            "close_approach_date": "2042-11-01",
            "close_approach_date_full": "2042-Nov-01 18:31",
            "epoch_date_close_approach": 2298479460000,
            "relative_velocity": {
                "kilometers_per_second": "17.5696037698",
                "kilometers_per_hour": "63250.5735713927",
                "miles_per_hour": "39301.4466727356"
            },
            "miss_distance": {
                "astronomical": "0.2470641494",
                "lunar": "96.1079541166",
                "kilometers": "36960270.503601778",
                "miles": "22966047.1411814164"
            },
            "orbiting_body": "Earth"
        }
    ],
    "orbital_data": {
        "orbit_id": "9",
        "orbit_determination_date": "2017-04-06 09:02:28",
        "first_observation_date": "2008-10-23",
        "last_observation_date": "2008-10-29",
        "data_arc_in_days": 6,
        "observations_used": 37,
        "orbit_uncertainty": "8",
        "minimum_orbit_intersection": ".0240358",
        "jupiter_tisserand_invariant": "3.901",
        "epoch_osculation": "2454765.5",
        "eccentricity": ".4842195224432593",
        "semi_major_axis": "1.807468248841183",
        "inclination": "7.586500825221541",
        "ascending_node_longitude": "208.5785483963085",
        "orbital_period": "887.5737352550486",
        "perihelion_distance": ".9322568365559512",
        "perihelion_argument": "130.8309583688374",
        "aphelion_distance": "2.682679661126414",
        "perihelion_time": "2454721.218919116517",
        "mean_anomaly": "17.96041104514331",
        "mean_motion": ".405600104758116",
        "equinox": "J2000",
        "orbit_class": {
            "orbit_class_type": "APO",
            "orbit_class_description": "Near-Earth asteroid orbits which cross the Earth’s orbit similar to that of 1862 Apollo",
            "orbit_class_range": "a (semi-major axis) > 1.0 AU; q (perihelion) < 1.017 AU"
        }
    },
    "is_sentry_object": false
}